LANDSAT 9               
1 49260U 21088A   23208.95207568  .00000531  00000+0  12807-3 0  9996
2 49260  98.2281 278.3522 0001204 106.9864 253.1467 14.57092854 97327
